{"type": "FeatureCollection", "features": [ {"type": "Feature", "properties": {"norad_id": 17070, "name": "POLAR BEAR", "group": "nnss", "lat": 54.45331695737962, "lon": 2.69960495098537, "alt_km": 954.1099811004651, "timestamp": "2025-12-26T03:50:12.361885+00:00", "meta": {"OBJECT_NAME": "POLAR BEAR", "OBJECT_ID": "1986-088A", "EPOCH": "2025-12-25T13:33:27.098208", "MEAN_MOTION": 13.75253429, "ECCENTRICITY": 0.0041279, "INCLINATION": 89.6169, "RA_OF_ASC_NODE": 183.2601, "ARG_OF_PERICENTER": 82.3818, "MEAN_ANOMALY": 338.9269, "EPHEMERIS_TYPE": 0, "CLASSIFICATION_TYPE": "U", "NORAD_CAT_ID": 17070, "ELEMENT_SET_NO": 999, "REV_AT_EPOCH": 96155, "BSTAR": 0.00010362, "MEAN_MOTION_DOT": 1.11e-06, "MEAN_MOTION_DDOT": 0}, "tle": {"line1": "1 17070U 86088A   25359.56489697  .00000111  00000+0  10362-3 0  9990", "line2": "2 17070  89.6169 183.2601 0041279  82.3818 338.9269 13.75253429961557"}}, "geometry": {"type": "Point", "coordinates": [2.69960495098537, 54.45331695737962]}}, {"type": "Feature", "properties": {"norad_id": 18361, "name": "OSCAR 27", "group": "nnss", "lat": -1.3382962054969256, "lon": 79.782711501109, "alt_km": 1171.3741637384783, "timestamp": "2025-12-26T03:50:12.361895+00:00", "meta": {"OBJECT_NAME": "OSCAR 27", "OBJECT_ID": "1987-080A", "EPOCH": "2025-12-25T18:54:56.214432", "MEAN_MOTION": 13.44909401, "ECCENTRICITY": 0.0104016, "INCLINATION": 90.3736, "RA_OF_ASC_NODE": 79.7601, "ARG_OF_PERICENTER": 186.2684, "MEAN_ANOMALY": 173.717, "EPHEMERIS_TYPE": 0, "CLASSIFICATION_TYPE": "U", "NORAD_CAT_ID": 18361, "ELEMENT_SET_NO": 999, "REV_AT_EPOCH": 87732, "BSTAR": 0.00017034, "MEAN_MOTION_DOT": 1.12e-06, "MEAN_MOTION_DDOT": 0}, "tle": {"line1": "1 18361U 87080A   25359.78815063  .00000112  00000+0  17034-3 0  9995", "line2": "2 18361  90.3736  79.7601 0104016 186.2684 173.7170 13.44909401877324"}}, "geometry": {"type": "Point", "coordinates": [79.782711501109, -1.3382962054969256]}}, {"type": "Feature", "properties": {"norad_id": 18362, "name": "OSCAR 29", "group": "nnss", "lat": -10.636679615860313, "lon": 80.30450630988423, "alt_km": 1157.628239786619, "timestamp": "2025-12-26T03:50:12.361906+00:00", "meta": {"OBJECT_NAME": "OSCAR 29", "OBJECT_ID": "1987-080B", "EPOCH": "2025-12-25T19:34:53.499936", "MEAN_MOTION": 13.44450875, "ECCENTRICITY": 0.0104821, "INCLINATION": 90.3748, "RA_OF_ASC_NODE": 80.2212, "ARG_OF_PERICENTER": 209.3307, "MEAN_ANOMALY": 275.5585, "EPHEMERIS_TYPE": 0, "CLASSIFICATION_TYPE": "U", "NORAD_CAT_ID": 18362, "ELEMENT_SET_NO": 999, "REV_AT_EPOCH": 87685, "BSTAR": 0.00015345, "MEAN_MOTION_DOT": 1e-06, "MEAN_MOTION_DDOT": 0}, "tle": {"line1": "1 18362U 87080B   25359.81589699  .00000100  00000+0  15345-3 0  9993", "line2": "2 18362  90.3748  80.2212 0104821 209.3307 275.5585 13.44450875876850"}}, "geometry": {"type": "Point", "coordinates": [80.30450630988423, -10.636679615860313]}}, {"type": "Feature", "properties": {"norad_id": 19070, "name": "OSCAR 23", "group": "nnss", "lat": 38.004619196560945, "lon": 16.557634585136086, "alt_km": 1185.959065724428, "timestamp": "2025-12-26T03:50:12.361916+00:00", "meta": {"OBJECT_NAME": "OSCAR 23", "OBJECT_ID": "1988-033A", "EPOCH": "2025-12-25T15:34:55.886016", "MEAN_MOTION": 13.27789128, "ECCENTRICITY": 0.0190526, "INCLINATION": 90.3203, "RA_OF_ASC_NODE": 16.7922, "ARG_OF_PERICENTER": 144.1187, "MEAN_ANOMALY": 336.7875, "EPHEMERIS_TYPE": 0, "CLASSIFICATION_TYPE": "U", "NORAD_CAT_ID": 19070, "ELEMENT_SET_NO": 999, "REV_AT_EPOCH": 82424, "BSTAR": 9.5671e-05, "MEAN_MOTION_DOT": 5.7e-07, "MEAN_MOTION_DDOT": 0}, "tle": {"line1": "1 19070U 88033A   25359.64925794  .00000057  00000+0  95671-4 0  9992", "line2": "2 19070  90.3203  16.7922 0190526 144.1187 336.7875 13.27789128824249"}}, "geometry": {"type": "Point", "coordinates": [16.557634585136086, 38.004619196560945]}}, {"type": "Feature", "properties": {"norad_id": 19071, "name": "OSCAR 32", "group": "nnss", "lat": 20.25393289144516, "lon": -162.94074224286976, "alt_km": 1030.3318254304331, "timestamp": "2025-12-26T03:50:12.361926+00:00", "meta": {"OBJECT_NAME": "OSCAR 32", "OBJECT_ID": "1988-033B", "EPOCH": "2025-12-25T13:08:21.516000", "MEAN_MOTION": 13.27955818, "ECCENTRICITY": 0.0189258, "INCLINATION": 90.3209, "RA_OF_ASC_NODE": 16.9217, "ARG_OF_PERICENTER": 131.3315, "MEAN_ANOMALY": 341.3068, "EPHEMERIS_TYPE": 0, "CLASSIFICATION_TYPE": "U", "NORAD_CAT_ID": 19071, "ELEMENT_SET_NO": 999, "REV_AT_EPOCH": 82435, "BSTAR": 0.00011842, "MEAN_MOTION_DOT": 6.9e-07, "MEAN_MOTION_DDOT": 0}, "tle": {"line1": "1 19071U 88033B   25359.54747125  .00000069  00000+0  11842-3 0  9992", "line2": "2 19071  90.3209  16.9217 0189258 131.3315 341.3068 13.27955818824355"}}, "geometry": {"type": "Point", "coordinates": [-162.94074224286976, 20.25393289144516]}}, {"type": "Feature", "properties": {"norad_id": 19223, "name": "NOVA 2", "group": "nnss", "lat": 66.01945806955139, "lon": -101.77541341143939, "alt_km": 1182.6818692786364, "timestamp": "2025-12-26T03:50:12.361936+00:00", "meta": {"OBJECT_NAME": "NOVA 2", "OBJECT_ID": "1988-052A", "EPOCH": "2025-12-25T16:57:54.227232", "MEAN_MOTION": 13.22937418, "ECCENTRICITY": 0.0029485, "INCLINATION": 89.9863, "RA_OF_ASC_NODE": 78.256, "ARG_OF_PERICENTER": 340.9131, "MEAN_ANOMALY": 136.6445, "EPHEMERIS_TYPE": 0, "CLASSIFICATION_TYPE": "U", "NORAD_CAT_ID": 19223, "ELEMENT_SET_NO": 999, "REV_AT_EPOCH": 81119, "BSTAR": 0.00013152, "MEAN_MOTION_DOT": 6.4e-07, "MEAN_MOTION_DDOT": 0}, "tle": {"line1": "1 19223U 88052A   25359.70687763  .00000064  00000+0  13152-3 0  9992", "line2": "2 19223  89.9863  78.2560 0029485 340.9131 136.6445 13.22937418811198"}}, "geometry": {"type": "Point", "coordinates": [-101.77541341143939, 66.01945806955139]}}, {"type": "Feature", "properties": {"norad_id": 19419, "name": "OSCAR 25", "group": "nnss", "lat": 59.12281703111255, "lon": 20.231277800405604, "alt_km": 1154.0217374112199, "timestamp": "2025-12-26T03:50:12.361946+00:00", "meta": {"OBJECT_NAME": "OSCAR 25", "OBJECT_ID": "1988-074A", "EPOCH": "2025-12-25T15:36:48.885120", "MEAN_MOTION": 13.42625604, "ECCENTRICITY": 0.0095249, "INCLINATION": 90.0336, "RA_OF_ASC_NODE": 20.2858, "ARG_OF_PERICENTER": 208.5252, "MEAN_ANOMALY": 271.0137, "EPHEMERIS_TYPE": 0, "CLASSIFICATION_TYPE": "U", "NORAD_CAT_ID": 19419, "ELEMENT_SET_NO": 999, "REV_AT_EPOCH": 82813, "BSTAR": 0.00011627, "MEAN_MOTION_DOT": 7.6e-07, "MEAN_MOTION_DDOT": 0}, "tle": {"line1": "1 19419U 88074A   25359.65056580  .00000076  00000+0  11627-3 0  9992", "line2": "2 19419  90.0336  20.2858 0095249 208.5252 271.0137 13.42625604828131"}}, "geometry": {"type": "Point", "coordinates": [20.231277800405604, 59.12281703111255]}}, {"type": "Feature", "properties": {"norad_id": 19420, "name": "OSCAR 31", "group": "nnss", "lat": -57.35660976007794, "lon": 20.6950659822876, "alt_km": 1120.1356292961827, "timestamp": "2025-12-26T03:50:12.361956+00:00", "meta": {"OBJECT_NAME": "OSCAR 31", "OBJECT_ID": "1988-074B", "EPOCH": "2025-12-25T14:24:12.037248", "MEAN_MOTION": 13.4258666, "ECCENTRICITY": 0.0093641, "INCLINATION": 90.0354, "RA_OF_ASC_NODE": 20.6378, "ARG_OF_PERICENTER": 202.82, "MEAN_ANOMALY": 275.1045, "EPHEMERIS_TYPE": 0, "CLASSIFICATION_TYPE": "U", "NORAD_CAT_ID": 19420, "ELEMENT_SET_NO": 999, "REV_AT_EPOCH": 82823, "BSTAR": 0.00010561, "MEAN_MOTION_DOT": 7e-07, "MEAN_MOTION_DDOT": 0}, "tle": {"line1": "1 19420U 88074B   25359.60013932  .00000070  00000+0  10561-3 0  9993", "line2": "2 19420  90.0354  20.6378 0093641 202.8200 275.1045 13.42586660828230"}}, "geometry": {"type": "Point", "coordinates": [20.6950659822876, -57.35660976007794]}}]}